#aV2007  3 15  0  0   .00000000      96 DD+AD WGS84 FIT  NGA
## 1418 345600.00000000   900.00000000 54174  .0000000000000
+   30     1  2  3  4  5  6  7  8  9 10 11 12 13 14 16 17 18
+         19 20 21 22 23 24 25 26 27 28 29 30 31  0  0  0  0
+          0  0  0  0  0  0  0  0  0  0  0  0  0  0  0  0  0
+          0  0  0  0  0  0  0  0  0  0  0  0  0  0  0  0  0
+          0  0  0  0  0  0  0  0  0  0  0  0  0  0  0  0  0
++         0  0  0  0  0  0  0  0  0  0  0  0  0  0  0  0  0
++         0  0  0  0  0  0  0  0  0  0  0  0  0  0  0  0  0
++         0  0  0  0  0  0  0  0  0  0  0  0  0  0  0  0  0
++         0  0  0  0  0  0  0  0  0  0  0  0  0  0  0  0  0
++         0  0  0  0  0  0  0  0  0  0  0  0  0  0  0  0  0
%c cc cc ccc ccc cccc cccc cccc cccc ccccc ccccc ccccc ccccc
%c cc cc ccc ccc cccc cccc cccc cccc ccccc ccccc ccccc ccccc
%f  0.0000000  0.000000000  0.00000000000  0.000000000000000
%f  0.0000000  0.000000000  0.00000000000  0.000000000000000
%i    0    0    0    0      0      0      0      0         0
%i    0    0    0    0      0      0      0      0         0
/*      NGA, ST. LOUIS,MO.                                  
/*   EPHEMERIS COMPUTED FROM  3 DAYS OF DATA                
/* CCCCCCCCCCCCCCCCCCCCCCCCCCCCCCCCCCCCCCCCCCCCCCCCCCCCCCCCC
/* CCCCCCCCCCCCCCCCCCCCCCCCCCCCCCCCCCCCCCCCCCCCCCCCCCCCCCCCC
*  2007  3 15 10  0   .00000000                                                 
P  1  20062.931973  11886.955799 -12564.363528    113.843692                    
V  1   8905.036069  13644.586779  26633.283948       .023775                    
P  2 -15951.782007   -908.897455 -21419.491131     90.482388                    
V  2   7860.650784 -25570.251235  -5084.796697       .032396                    
P  3  21928.902115   6624.821298  13509.586509     28.034994                    
V  3  10800.960560  13999.383381 -23703.971922       .056214                    
P  4  -9609.705861 -15111.284530 -19568.152039      7.884942                    
V  4   9765.263203 -22919.000674  13306.566856       .012579                    
P  5 -18066.015137  14878.575475 -12647.654957     42.789107                    
V  5 -15973.461969   1655.093856  25374.956243      -.003198                    
P  6  -1186.123616  18742.913413 -18572.380949     88.131334                    
V  6 -17897.085960 -16227.296475 -15129.861811       .222131                    
P  7   3609.995833  20485.278821 -16132.017729    383.439294                    
V  7 -16743.945414 -13280.177094 -20264.686115      -.137965                    
P  8  -1342.207948 -22335.739159  13847.407842   -100.075263                    
V  8   8478.281258 -15931.207189 -25091.026455      -.014000                    
P  9 -14451.853123  17714.460753  12737.508747     61.665463                    
V  9   2469.681705 -17215.246456  25808.103322       .016763                    
P 10 -26174.158812    753.710885  -5499.183115     98.849679                    
V 10   6298.149493  -3296.189615 -30736.980048       .005744                    
P 11  12958.551404 -19607.438151  11993.134041     10.261395                    
V 11   1637.430181  16156.082776  24719.732217       .011132                    
P 12 -20794.309335  12103.994482 -11086.521939    -45.026352                    
V 12 -14466.821949    404.333149  27352.010376       .012756                    
P 13  -1893.629540 -20101.513738 -17377.480490    153.237147                    
V 13  14636.453136  16172.552712 -20367.757793       .038443                    
P 14  16037.386990  21119.573977   2139.106317     11.751423                    
V 14  -3109.545888   -776.557835  32156.247713       .014761                    
P 16  23972.627652   3318.487142 -11013.386712    131.009806                    
V 16 -13406.356187   4821.008304 -27379.439997       .034178                    
P 17 -15505.729651 -21386.968490   3345.051518     75.238631                    
V 17   4816.431427   1414.692356  31284.427638      -.013965                    
P 18  -1098.512313  15632.035810  21548.172362   -252.996147                    
V 18 -26862.063086   3667.834207  -4376.142529       .003764                    
P 19  17027.563584  -1477.365270  20453.146744     14.783011                    
V 19  14988.229811  20942.565603 -10916.318358       .038786                    
P 20  19419.171131 -13178.081074 -12492.374721    -22.899512                    
V 20  15913.560961   -820.239903  25853.331883      -.002580                    
P 21  -3625.109863  24980.651870   7367.902544     73.474636                    
V 21  -6786.092861   7492.166134 -29705.002882       .007902                    
P 22  11679.693239  12847.630353  20258.334796    172.139043                    
V 22 -24969.384102   4823.761330  11402.079708       .017284                    
P 23   8235.710721 -13084.036181 -21655.595866    154.510306                    
V 23  18398.717494  20175.952191  -5400.520633       .019543                    
P 24 -12624.943533  23060.547625  -4580.768863     85.068629                    
V 24   -260.042822  -6585.937487 -30754.841102       .028521                    
P 25  15888.179137  -8239.354212 -19304.445674    297.422124                    
V 25  -4545.545006  24914.651434 -13931.206373      -.219947                    
P 26 -17683.006269  -1427.084245  19534.615897    -89.928288                    
V 26 -15669.533261 -20092.731843 -14767.549204      -.192311                    
P 27   2791.621180 -25763.517191   5802.086880     99.394068                    
V 27   4421.472676  -5639.809329 -30817.681092       .022406                    
P 28  -7781.514891 -13933.406701  21605.340747      5.342075                    
V 28  26147.590114  -4970.009389   5962.516752      -.007785                    
P 29 -19644.806695  -4699.510619  17652.033847       .324716                    
V 29 -13739.223910 -16928.605017 -19694.936977       .004754                    
P 30 -10056.508318  16260.124562 -18694.085558     28.095617                    
V 30 -22953.341108   3777.010515  16004.670144       .010581                    
P 31  10478.568364  13295.636235 -20248.640776     15.496783                    
V 31  -9283.428133  24503.906002  11234.568023       .021844                    
EOF
